{
  "norad_id": 63120,
  "name": "STARLINK-32942",
  "history": [
    {
      "epoch": "2026-04-11T06:59:04.730208Z",
      "apogee_km": 483.7876627672049,
      "perigee_km": 482.32074008834024,
      "latitude_deg": -3.573008182583622e-05,
      "longitude_deg": -115.69317427781627,
      "height_km": 482.9406040251676,
      "semi_major_axis_km": 6861.191201427772,
      "eccentricity": 0.0001069,
      "inclination_deg": 43.0013,
      "raan_deg": 188.5892,
      "arg_perigee_deg": 261.3857,
      "mean_anomaly_deg": 98.6873,
      "mean_motion_rev_day": 15.27578295
    },
    {
      "epoch": "2026-04-13T06:03:45.802944Z",
      "apogee_km": 484.0496671428391,
      "perigee_km": 482.06911419271,
      "latitude_deg": 2.8676319605475956e-05,
      "longitude_deg": -114.87607133074918,
      "height_km": 482.77147914885654,
      "semi_major_axis_km": 6861.196390667775,
      "eccentricity": 0.00014433,
      "inclination_deg": 43.0022,
      "raan_deg": 177.5108,
      "arg_perigee_deg": 273.7576,
      "mean_anomaly_deg": 86.3111,
      "mean_motion_rev_day": 15.27576562
    },
    {
      "epoch": "2026-04-14T11:52:44.585472Z",
      "apogee_km": 483.9013018755686,
      "perigee_km": 482.19780647789776,
      "latitude_deg": 7.600046783323383e-06,
      "longitude_deg": 149.63806708227588,
      "height_km": 482.7008777008699,
      "semi_major_axis_km": 6861.186554176733,
      "eccentricity": 0.00012414,
      "inclination_deg": 43.0014,
      "raan_deg": 170.4944,
      "arg_perigee_deg": 278.4667,
      "mean_anomaly_deg": 81.6044,
      "mean_motion_rev_day": 15.27579847
    },
    {
      "epoch": "2026-04-15T20:50:02.193216Z",
      "apogee_km": 484.1253850002904,
      "perigee_km": 481.9476485260702,
      "latitude_deg": 1.6542136541891975e-05,
      "longitude_deg": 6.206304234529636,
      "height_km": 482.8211936213464,
      "semi_major_axis_km": 6861.17351676318,
      "eccentricity": 0.0001587,
      "inclination_deg": 43.0008,
      "raan_deg": 162.7394,
      "arg_perigee_deg": 269.5929,
      "mean_anomaly_deg": 90.4741,
      "mean_motion_rev_day": 15.27584201
    },
    {
      "epoch": "2026-04-16T20:22:22.964160Z",
      "apogee_km": 483.9103205704632,
      "perigee_km": 482.116815811939,
      "latitude_deg": 3.95049240532886e-07,
      "longitude_deg": 6.614226673026835,
      "height_km": 482.7487020361904,
      "semi_major_axis_km": 6861.150568191201,
      "eccentricity": 0.0001307,
      "inclination_deg": 43.0008,
      "raan_deg": 157.2006,
      "arg_perigee_deg": 272.6578,
      "mean_anomaly_deg": 87.4124,
      "mean_motion_rev_day": 15.27591865
    },
    {
      "epoch": "2026-04-17T19:54:42.783840Z",
      "apogee_km": 484.1870979643263,
      "perigee_km": 481.76004871011355,
      "latitude_deg": -4.693851858250227e-06,
      "longitude_deg": 7.024534732822405,
      "height_km": 482.7950563934217,
      "semi_major_axis_km": 6861.11057333722,
      "eccentricity": 0.00017687,
      "inclination_deg": 42.9998,
      "raan_deg": 151.6602,
      "arg_perigee_deg": 267.8977,
      "mean_anomaly_deg": 92.1672,
      "mean_motion_rev_day": 15.27605222
    }
  ]
}